STARLINK-31531          
1 59477C 24068Y   25196.08590278  .00006788  00000+0  24587-3 0  1960
2 59477  43.0011 241.2214 0001634 269.5799 329.0008 15.27572453    14
STARLINK-31753          
1 59484C 24071A   25196.08729167  .00008587  00000+0  31103-3 0  1964
2 59484  43.0004 241.6674 0001682 269.8909 194.7353 15.27568299    10
STARLINK-31733          
1 59486C 24071C   25196.08104167 -.00000867  00000+0 -31414-4 0  1964
2 59486  42.9995 241.3224 0001478 266.2413 326.6977 15.27579824    15
STARLINK-31657          
1 59487C 24071D   25196.08520833  .00012150  00000+0  44008-3 0  1965
2 59487  43.0008 241.5197 0001819 270.6668 253.2331 15.27565320    19

